{"type": "FeatureCollection", "features": [ {"type": "Feature", "properties": {"norad_id": 34001, "name": "COSMOS 2251 DEB", "group": "cosmos-2251-debris", "lat": 71.01148562246026, "lon": 23.31290932651339, "alt_km": 768.6080312561598, "timestamp": "2025-12-24T16:52:41.930723+00:00", "meta": {"OBJECT_NAME": "COSMOS 2251 DEB", "OBJECT_ID": "1993-036GL", "EPOCH": "2025-12-24T03:46:03.808128", "MEAN_MOTION": 14.37111105, "ECCENTRICITY": 0.00204321, "INCLINATION": 74.0386, "RA_OF_ASC_NODE": 260.594, "ARG_OF_PERICENTER": 339.3151, "MEAN_ANOMALY": 175.8064, "EPHEMERIS_TYPE": 0, "CLASSIFICATION_TYPE": "U", "NORAD_CAT_ID": 34001, "ELEMENT_SET_NO": 999, "REV_AT_EPOCH": 88310, "BSTAR": 0.00017014086, "MEAN_MOTION_DOT": 4.8e-06, "MEAN_MOTION_DDOT": 0}, "tle": {"line1": "1 34001U 93036GL  25358.15698852  .00000480  00000+0  17014-3 0  9993", "line2": "2 34001  74.0386 260.5940 0020432 339.3151 175.8064 14.37111105883105"}}, "geometry": {"type": "Point", "coordinates": [23.31290932651339, 71.01148562246026]}}, {"type": "Feature", "properties": {"norad_id": 34003, "name": "COSMOS 2251 DEB", "group": "cosmos-2251-debris", "lat": -46.053593107133, "lon": 102.23492878010984, "alt_km": 1120.6955737439894, "timestamp": "2025-12-24T16:52:41.930733+00:00", "meta": {"OBJECT_NAME": "COSMOS 2251 DEB", "OBJECT_ID": "1993-036GN", "EPOCH": "2025-12-24T03:37:55.677504", "MEAN_MOTION": 13.84211481, "ECCENTRICITY": 0.02753317, "INCLINATION": 74.0776, "RA_OF_ASC_NODE": 265.937, "ARG_OF_PERICENTER": 15.3832, "MEAN_ANOMALY": 345.5452, "EPHEMERIS_TYPE": 0, "CLASSIFICATION_TYPE": "U", "NORAD_CAT_ID": 34003, "ELEMENT_SET_NO": 999, "REV_AT_EPOCH": 84583, "BSTAR": 0.0018921748, "MEAN_MOTION_DOT": 2.809e-05, "MEAN_MOTION_DDOT": 0}, "tle": {"line1": "1 34003U 93036GN  25358.15133886  .00002809  00000+0  18922-2 0  9991", "line2": "2 34003  74.0776 265.9370 0275331  15.3832 345.5452 13.84211481845837"}}, "geometry": {"type": "Point", "coordinates": [102.23492878010984, -46.053593107133]}}, {"type": "Feature", "properties": {"norad_id": 34004, "name": "COSMOS 2251 DEB", "group": "cosmos-2251-debris", "lat": 37.63743693973824, "lon": 97.92416536984528, "alt_km": 747.8989739617446, "timestamp": "2025-12-24T16:52:41.930744+00:00", "meta": {"OBJECT_NAME": "COSMOS 2251 DEB", "OBJECT_ID": "1993-036GP", "EPOCH": "2025-12-23T05:26:09.671712", "MEAN_MOTION": 14.49098754, "ECCENTRICITY": 0.00334544, "INCLINATION": 74.0361, "RA_OF_ASC_NODE": 293.4447, "ARG_OF_PERICENTER": 304.4211, "MEAN_ANOMALY": 55.3787, "EPHEMERIS_TYPE": 0, "CLASSIFICATION_TYPE": "U", "NORAD_CAT_ID": 34004, "ELEMENT_SET_NO": 999, "REV_AT_EPOCH": 88182, "BSTAR": 0.0012360348, "MEAN_MOTION_DOT": 4.706e-05, "MEAN_MOTION_DDOT": 0}, "tle": {"line1": "1 34004U 93036GP  25357.22650083  .00004706  00000+0  12360-2 0  9990", "line2": "2 34004  74.0361 293.4447 0033454 304.4211  55.3787 14.49098754881824"}}, "geometry": {"type": "Point", "coordinates": [97.92416536984528, 37.63743693973824]}}, {"type": "Feature", "properties": {"norad_id": 34005, "name": "COSMOS 2251 DEB", "group": "cosmos-2251-debris", "lat": 36.062932253761815, "lon": -156.43015529973016, "alt_km": 754.618933756883, "timestamp": "2025-12-24T16:52:41.930755+00:00", "meta": {"OBJECT_NAME": "COSMOS 2251 DEB", "OBJECT_ID": "1993-036GQ", "EPOCH": "2025-12-24T00:45:27.509760", "MEAN_MOTION": 14.40311949, "ECCENTRICITY": 0.00211906, "INCLINATION": 74.0434, "RA_OF_ASC_NODE": 192.7847, "ARG_OF_PERICENTER": 309.1002, "MEAN_ANOMALY": 207.0852, "EPHEMERIS_TYPE": 0, "CLASSIFICATION_TYPE": "U", "NORAD_CAT_ID": 34005, "ELEMENT_SET_NO": 999, "REV_AT_EPOCH": 88541, "BSTAR": 9.8175556e-05, "MEAN_MOTION_DOT": 2.85e-06, "MEAN_MOTION_DDOT": 0}, "tle": {"line1": "1 34005U 93036GQ  25358.03156840  .00000285  00000+0  98176-4 0  9992", "line2": "2 34005  74.0434 192.7847 0021190 309.1002 207.0852 14.40311949885418"}}, "geometry": {"type": "Point", "coordinates": [-156.43015529973016, 36.062932253761815]}}, {"type": "Feature", "properties": {"norad_id": 34006, "name": "COSMOS 2251 DEB", "group": "cosmos-2251-debris", "lat": 35.689904558323825, "lon": -72.67079699103942, "alt_km": 577.9948887219061, "timestamp": "2025-12-24T16:52:41.930766+00:00", "meta": {"OBJECT_NAME": "COSMOS 2251 DEB", "OBJECT_ID": "1993-036GR", "EPOCH": "2025-12-23T09:59:27.714336", "MEAN_MOTION": 14.95449075, "ECCENTRICITY": 0.00116268, "INCLINATION": 74.0535, "RA_OF_ASC_NODE": 121.7746, "ARG_OF_PERICENTER": 54.9449, "MEAN_ANOMALY": 1.6406, "EPHEMERIS_TYPE": 0, "CLASSIFICATION_TYPE": "U", "NORAD_CAT_ID": 34006, "ELEMENT_SET_NO": 999, "REV_AT_EPOCH": 88828, "BSTAR": 0.0034401278, "MEAN_MOTION_DOT": 0.00038281, "MEAN_MOTION_DDOT": 0}, "tle": {"line1": "1 34006U 93036GR  25357.41629299  .00038281  00000+0  34401-2 0  9993", "line2": "2 34006  74.0535 121.7746 0011626  54.9449   1.6406 14.95449075888287"}}, "geometry": {"type": "Point", "coordinates": [-72.67079699103942, 35.689904558323825]}}, {"type": "Feature", "properties": {"norad_id": 34007, "name": "COSMOS 2251 DEB", "group": "cosmos-2251-debris", "lat": -34.292905643507844, "lon": 155.13523425222286, "alt_km": 699.2776673068302, "timestamp": "2025-12-24T16:52:41.930776+00:00", "meta": {"OBJECT_NAME": "COSMOS 2251 DEB", "OBJECT_ID": "1993-036GS", "EPOCH": "2025-12-24T04:25:38.414496", "MEAN_MOTION": 14.64863711, "ECCENTRICITY": 0.00442568, "INCLINATION": 74.0195, "RA_OF_ASC_NODE": 324.8636, "ARG_OF_PERICENTER": 96.0703, "MEAN_ANOMALY": 264.5511, "EPHEMERIS_TYPE": 0, "CLASSIFICATION_TYPE": "U", "NORAD_CAT_ID": 34007, "ELEMENT_SET_NO": 999, "REV_AT_EPOCH": 89247, "BSTAR": 0.00077481553, "MEAN_MOTION_DOT": 4.17e-05, "MEAN_MOTION_DDOT": 0}, "tle": {"line1": "1 34007U 93036GS  25358.18447239  .00004170  00000+0  77482-3 0  9998", "line2": "2 34007  74.0195 324.8636 0044256  96.0703 264.5511 14.64863711892475"}}, "geometry": {"type": "Point", "coordinates": [155.13523425222286, -34.292905643507844]}}, {"type": "Feature", "properties": {"norad_id": 34008, "name": "COSMOS 2251 DEB", "group": "cosmos-2251-debris", "lat": -3.320297017828482, "lon": -52.297507251231444, "alt_km": 774.0206505971464, "timestamp": "2025-12-24T16:52:41.930787+00:00", "meta": {"OBJECT_NAME": "COSMOS 2251 DEB", "OBJECT_ID": "1993-036GT", "EPOCH": "2025-12-24T03:36:17.043264", "MEAN_MOTION": 14.33153747, "ECCENTRICITY": 0.00246343, "INCLINATION": 74.0349, "RA_OF_ASC_NODE": 309.6644, "ARG_OF_PERICENTER": 303.087, "MEAN_ANOMALY": 81.0266, "EPHEMERIS_TYPE": 0, "CLASSIFICATION_TYPE": "U", "NORAD_CAT_ID": 34008, "ELEMENT_SET_NO": 999, "REV_AT_EPOCH": 88128, "BSTAR": 0.00011874811, "MEAN_MOTION_DOT": 3.01e-06, "MEAN_MOTION_DDOT": 0}, "tle": {"line1": "1 34008U 93036GT  25358.15019726  .00000301  00000+0  11875-3 0  9998", "line2": "2 34008  74.0349 309.6644 0024634 303.0870  81.0266 14.33153747881284"}}, "geometry": {"type": "Point", "coordinates": [-52.297507251231444, -3.320297017828482]}}, {"type": "Feature", "properties": {"norad_id": 34009, "name": "COSMOS 2251 DEB", "group": "cosmos-2251-debris", "lat": 34.0913825983667, "lon": -33.756551023163254, "alt_km": 759.7045110073168, "timestamp": "2025-12-24T16:52:41.930798+00:00", "meta": {"OBJECT_NAME": "COSMOS 2251 DEB", "OBJECT_ID": "1993-036GU", "EPOCH": "2025-12-24T07:13:17.112864", "MEAN_MOTION": 14.33231281, "ECCENTRICITY": 0.00269597, "INCLINATION": 74.0377, "RA_OF_ASC_NODE": 315.8084, "ARG_OF_PERICENTER": 22.1198, "MEAN_ANOMALY": 98.303, "EPHEMERIS_TYPE": 0, "CLASSIFICATION_TYPE": "U", "NORAD_CAT_ID": 34009, "ELEMENT_SET_NO": 999, "REV_AT_EPOCH": 88111, "BSTAR": 0.00015103048, "MEAN_MOTION_DOT": 3.91e-06, "MEAN_MOTION_DDOT": 0}, "tle": {"line1": "1 34009U 93036GU  25358.30089251  .00000391  00000+0  15103-3 0  9993", "line2": "2 34009  74.0377 315.8084 0026959  22.1198  98.3030 14.33231281881119"}}, "geometry": {"type": "Point", "coordinates": [-33.756551023163254, 34.0913825983667]}}, {"type": "Feature", "properties": {"norad_id": 34010, "name": "COSMOS 2251 DEB", "group": "cosmos-2251-debris", "lat": 26.06203774368859, "lon": -93.74292834262097, "alt_km": 499.86734564860035, "timestamp": "2025-12-24T16:52:41.930809+00:00", "meta": {"OBJECT_NAME": "COSMOS 2251 DEB", "OBJECT_ID": "1993-036GV", "EPOCH": "2025-12-24T02:32:53.194272", "MEAN_MOTION": 15.20549347, "ECCENTRICITY": 0.00047134, "INCLINATION": 73.9972, "RA_OF_ASC_NODE": 259.4433, "ARG_OF_PERICENTER": 58.6224, "MEAN_ANOMALY": 301.5434, "EPHEMERIS_TYPE": 0, "CLASSIFICATION_TYPE": "U", "NORAD_CAT_ID": 34010, "ELEMENT_SET_NO": 999, "REV_AT_EPOCH": 89458, "BSTAR": 0.00385511, "MEAN_MOTION_DOT": 0.00085389, "MEAN_MOTION_DDOT": 0}, "tle": {"line1": "1 34010U 93036GV  25358.10617123  .00085389  00000+0  38551-2 0  9999", "line2": "2 34010  73.9972 259.4433 0004713  58.6224 301.5434 15.20549347894583"}}, "geometry": {"type": "Point", "coordinates": [-93.74292834262097, 26.06203774368859]}}, {"type": "Feature", "properties": {"norad_id": 34011, "name": "COSMOS 2251 DEB", "group": "cosmos-2251-debris", "lat": 47.28959776555243, "lon": -33.96080273100712, "alt_km": 723.8818816928406, "timestamp": "2025-12-24T16:52:41.930819+00:00", "meta": {"OBJECT_NAME": "COSMOS 2251 DEB", "OBJECT_ID": "1993-036GW", "EPOCH": "2025-12-24T06:39:29.454336", "MEAN_MOTION": 14.4182197, "ECCENTRICITY": 0.00362711, "INCLINATION": 74.0149, "RA_OF_ASC_NODE": 308.7381, "ARG_OF_PERICENTER": 29.1397, "MEAN_ANOMALY": 331.1772, "EPHEMERIS_TYPE": 0, "CLASSIFICATION_TYPE": "U", "NORAD_CAT_ID": 34011, "ELEMENT_SET_NO": 999, "REV_AT_EPOCH": 88082, "BSTAR": 0.00081101718, "MEAN_MOTION_DOT": 2.646e-05, "MEAN_MOTION_DDOT": 0}, "tle": {"line1": "1 34011U 93036GW  25358.27742424  .00002646  00000+0  81102-3 0  9997", "line2": "2 34011  74.0149 308.7381 0036271  29.1397 331.1772 14.41821970880823"}}, "geometry": {"type": "Point", "coordinates": [-33.96080273100712, 47.28959776555243]}}]}